[{"OBJECT_NAME":"ITUPSAT1","OBJECT_ID":"2009-051E","EPOCH":"2026-03-09T22:57:51.275808","MEAN_MOTION":14.60268809,"ECCENTRICITY":0.0007289,"INCLINATION":98.4113,"RA_OF_ASC_NODE":334.2386,"ARG_OF_PERICENTER":177.2915,"MEAN_ANOMALY":182.8326,"EPHEMERIS_TYPE":0,"CLASSIFICATION_TYPE":"U","NORAD_CAT_ID":35935,"ELEMENT_SET_NO":999,"REV_AT_EPOCH":87425,"BSTAR":0.00025648628,"MEAN_MOTION_DOT":1.19e-5,"MEAN_MOTION_DDOT":0},{"OBJECT_NAME":"FENGYUN 1C DEB","OBJECT_ID":"1999-025BHE","EPOCH":"2026-03-08T10:41:25.488096","MEAN_MOTION":14.35920046,"ECCENTRICITY":0.0130144,"INCLINATION":98.4246,"RA_OF_ASC_NODE":57.0577,"ARG_OF_PERICENTER":136.8956,"MEAN_ANOMALY":15.9929,"EPHEMERIS_TYPE":0,"CLASSIFICATION_TYPE":"U","NORAD_CAT_ID":31152,"ELEMENT_SET_NO":999,"REV_AT_EPOCH":99278,"BSTAR":0.00010725672,"MEAN_MOTION_DOT":2.98e-6,"MEAN_MOTION_DDOT":0}]
